CCSDS_OMM_VERS = 2.0
CREATION_DATE  = 
ORIGINATOR     = 

OBJECT_NAME    = DUPLEX
OBJECT_ID      = 1998-067XS
CENTER_NAME    = EARTH
REF_FRAME      = TEME
TIME_SYSTEM    = UTC
MEAN_ELEMENT_THEORY = SGP/SGP4

EPOCH          = 2026-05-22T01:40:47.816832
MEAN_MOTION    = 15.60428220
ECCENTRICITY   = .0005373
INCLINATION    = 51.6286
RA_OF_ASC_NODE = 61.1585
ARG_OF_PERICENTER = 92.1093
MEAN_ANOMALY   = 268.0516

EPHEMERIS_TYPE = 0
CLASSIFICATION_TYPE = U
NORAD_CAT_ID   = 66906
ELEMENT_SET_NO = 999
REV_AT_EPOCH   = 2657
BSTAR          = .34674E-3
MEAN_MOTION_DOT = .28651E-3
MEAN_MOTION_DDOT = 0

CCSDS_OMM_VERS = 2.0
CREATION_DATE  = 
ORIGINATOR     = 

OBJECT_NAME    = ISS OBJECT XY
OBJECT_ID      = 1998-067XY
CENTER_NAME    = EARTH
REF_FRAME      = TEME
TIME_SYSTEM    = UTC
MEAN_ELEMENT_THEORY = SGP/SGP4

EPOCH          = 2026-05-22T10:40:10.274304
MEAN_MOTION    = 15.81921114
ECCENTRICITY   = .0005118
INCLINATION    = 51.6229
RA_OF_ASC_NODE = 49.3244
ARG_OF_PERICENTER = 130.0047
MEAN_ANOMALY   = 230.1405

EPHEMERIS_TYPE = 0
CLASSIFICATION_TYPE = U
NORAD_CAT_ID   = 66912
ELEMENT_SET_NO = 999
REV_AT_EPOCH   = 2675
BSTAR          = .80098E-3
MEAN_MOTION_DOT = .16894E-2
MEAN_MOTION_DDOT = 0

CCSDS_OMM_VERS = 2.0
CREATION_DATE  = 
ORIGINATOR     = 

OBJECT_NAME    = KNACKSAT-2
OBJECT_ID      = 1998-067XZ
CENTER_NAME    = EARTH
REF_FRAME      = TEME
TIME_SYSTEM    = UTC
MEAN_ELEMENT_THEORY = SGP/SGP4

EPOCH          = 2026-05-23T11:25:40.001952
MEAN_MOTION    = 15.57562157
ECCENTRICITY   = .0012027
INCLINATION    = 51.6304
RA_OF_ASC_NODE = 58.5531
ARG_OF_PERICENTER = 109.7965
MEAN_ANOMALY   = 250.4324

EPHEMERIS_TYPE = 0
CLASSIFICATION_TYPE = U
NORAD_CAT_ID   = 67683
ELEMENT_SET_NO = 999
REV_AT_EPOCH   = 1642
BSTAR          = .46334E-3
MEAN_MOTION_DOT = .34577E-3
MEAN_MOTION_DDOT = 0

CCSDS_OMM_VERS = 2.0
CREATION_DATE  = 
ORIGINATOR     = 

OBJECT_NAME    = CORAL
OBJECT_ID      = 1998-067YA
CENTER_NAME    = EARTH
REF_FRAME      = TEME
TIME_SYSTEM    = UTC
MEAN_ELEMENT_THEORY = SGP/SGP4

EPOCH          = 2026-05-23T11:18:53.415648
MEAN_MOTION    = 15.68132409
ECCENTRICITY   = .0013437
INCLINATION    = 51.6263
RA_OF_ASC_NODE = 54.7540
ARG_OF_PERICENTER = 112.8198
MEAN_ANOMALY   = 247.4219

EPHEMERIS_TYPE = 0
CLASSIFICATION_TYPE = U
NORAD_CAT_ID   = 67684
ELEMENT_SET_NO = 999
REV_AT_EPOCH   = 1647
BSTAR          = .94936E-3
MEAN_MOTION_DOT = .109302E-2
MEAN_MOTION_DDOT = 0

CCSDS_OMM_VERS = 2.0
CREATION_DATE  = 
ORIGINATOR     = 

OBJECT_NAME    = GXIBA-1
OBJECT_ID      = 1998-067YB
CENTER_NAME    = EARTH
REF_FRAME      = TEME
TIME_SYSTEM    = UTC
MEAN_ELEMENT_THEORY = SGP/SGP4

EPOCH          = 2026-05-22T00:36:56.960064
MEAN_MOTION    = 15.58582799
ECCENTRICITY   = .00137614
INCLINATION    = 51.6286
RA_OF_ASC_NODE = 65.3663
ARG_OF_PERICENTER = 101.6902
MEAN_ANOMALY   = 258.5636

EPHEMERIS_TYPE = 0
CLASSIFICATION_TYPE = U
NORAD_CAT_ID   = 67685
ELEMENT_SET_NO = 999
REV_AT_EPOCH   = 1620
BSTAR          = .5288514E-3
MEAN_MOTION_DOT = .41177E-3
MEAN_MOTION_DDOT = 0

CCSDS_OMM_VERS = 2.0
CREATION_DATE  = 
ORIGINATOR     = 

OBJECT_NAME    = UITMSAT-2
OBJECT_ID      = 1998-067YC
CENTER_NAME    = EARTH
REF_FRAME      = TEME
TIME_SYSTEM    = UTC
MEAN_ELEMENT_THEORY = SGP/SGP4

EPOCH          = 2026-05-22T03:32:16.947168
MEAN_MOTION    = 15.60842934
ECCENTRICITY   = .00102642
INCLINATION    = 51.6278
RA_OF_ASC_NODE = 63.9310
ARG_OF_PERICENTER = 87.2209
MEAN_ANOMALY   = 272.9959

EPHEMERIS_TYPE = 0
CLASSIFICATION_TYPE = U
NORAD_CAT_ID   = 67686
ELEMENT_SET_NO = 999
REV_AT_EPOCH   = 1623
BSTAR          = .64028538E-3
MEAN_MOTION_DOT = .54481E-3
MEAN_MOTION_DDOT = 0

CCSDS_OMM_VERS = 2.0
CREATION_DATE  = 
ORIGINATOR     = 

OBJECT_NAME    = LEOPARD
OBJECT_ID      = 1998-067YD
CENTER_NAME    = EARTH
REF_FRAME      = TEME
TIME_SYSTEM    = UTC
MEAN_ELEMENT_THEORY = SGP/SGP4

EPOCH          = 2026-05-22T11:48:01.802592
MEAN_MOTION    = 15.58149895
ECCENTRICITY   = .0010034
INCLINATION    = 51.6302
RA_OF_ASC_NODE = 63.2373
ARG_OF_PERICENTER = 86.7062
MEAN_ANOMALY   = 273.5078

EPHEMERIS_TYPE = 0
CLASSIFICATION_TYPE = U
NORAD_CAT_ID   = 67687
ELEMENT_SET_NO = 999
REV_AT_EPOCH   = 1619
BSTAR          = .54696E-3
MEAN_MOTION_DOT = .41828E-3
MEAN_MOTION_DDOT = 0

CCSDS_OMM_VERS = 2.0
CREATION_DATE  = 
ORIGINATOR     = 

OBJECT_NAME    = HMU-SAT2
OBJECT_ID      = 1998-067YE
CENTER_NAME    = EARTH
REF_FRAME      = TEME
TIME_SYSTEM    = UTC
MEAN_ELEMENT_THEORY = SGP/SGP4

EPOCH          = 2026-05-22T11:59:52.699200
MEAN_MOTION    = 15.59843796
ECCENTRICITY   = .0010088
INCLINATION    = 51.6296
RA_OF_ASC_NODE = 62.5396
ARG_OF_PERICENTER = 87.4771
MEAN_ANOMALY   = 272.7377

EPHEMERIS_TYPE = 0
CLASSIFICATION_TYPE = U
NORAD_CAT_ID   = 67688
ELEMENT_SET_NO = 999
REV_AT_EPOCH   = 1620
BSTAR          = .62535E-3
MEAN_MOTION_DOT = .51159E-3
MEAN_MOTION_DDOT = 0

CCSDS_OMM_VERS = 2.0
CREATION_DATE  = 
ORIGINATOR     = 

OBJECT_NAME    = CREW DRAGON 12
OBJECT_ID      = 2026-031A
CENTER_NAME    = EARTH
REF_FRAME      = TEME
TIME_SYSTEM    = UTC
MEAN_ELEMENT_THEORY = SGP/SGP4

EPOCH          = 2026-05-23T11:41:32.753760
MEAN_MOTION    = 15.49328337
ECCENTRICITY   = .0007523
INCLINATION    = 51.6326
RA_OF_ASC_NODE = 62.3775
ARG_OF_PERICENTER = 89.6569
MEAN_ANOMALY   = 270.5281

EPHEMERIS_TYPE = 0
CLASSIFICATION_TYPE = U
NORAD_CAT_ID   = 67796
ELEMENT_SET_NO = 999
REV_AT_EPOCH   = 56783
BSTAR          = .1293E-3
MEAN_MOTION_DOT = .6763E-4
MEAN_MOTION_DDOT = 0

CCSDS_OMM_VERS = 2.0
CREATION_DATE  = 
ORIGINATOR     = 

OBJECT_NAME    = PROGRESS-MS 33
OBJECT_ID      = 2026-058A
CENTER_NAME    = EARTH
REF_FRAME      = TEME
TIME_SYSTEM    = UTC
MEAN_ELEMENT_THEORY = SGP/SGP4

EPOCH          = 2026-05-23T11:41:32.753760
MEAN_MOTION    = 15.49328337
ECCENTRICITY   = .0007523
INCLINATION    = 51.6326
RA_OF_ASC_NODE = 62.3775
ARG_OF_PERICENTER = 89.6569
MEAN_ANOMALY   = 270.5281

EPHEMERIS_TYPE = 0
CLASSIFICATION_TYPE = U
NORAD_CAT_ID   = 68319
ELEMENT_SET_NO = 999
REV_AT_EPOCH   = 56791
BSTAR          = .1293E-3
MEAN_MOTION_DOT = .6763E-4
MEAN_MOTION_DDOT = 0

CCSDS_OMM_VERS = 2.0
CREATION_DATE  = 
ORIGINATOR     = 

OBJECT_NAME    = CYGNUS NG-24
OBJECT_ID      = 2026-079A
CENTER_NAME    = EARTH
REF_FRAME      = TEME
TIME_SYSTEM    = UTC
MEAN_ELEMENT_THEORY = SGP/SGP4

EPOCH          = 2026-05-22T12:28:18.496992
MEAN_MOTION    = 15.49313075
ECCENTRICITY   = .00075371
INCLINATION    = 51.6330
RA_OF_ASC_NODE = 67.1668
ARG_OF_PERICENTER = 86.3178
MEAN_ANOMALY   = 273.8673

EPHEMERIS_TYPE = 0
CLASSIFICATION_TYPE = U
NORAD_CAT_ID   = 68689
ELEMENT_SET_NO = 999
REV_AT_EPOCH   = 56779
BSTAR          = .13944924E-3
MEAN_MOTION_DOT = .7327E-4
MEAN_MOTION_DDOT = 0

CCSDS_OMM_VERS = 2.0
CREATION_DATE  = 
ORIGINATOR     = 

OBJECT_NAME    = PROGRESS-MS 34
OBJECT_ID      = 2026-093A
CENTER_NAME    = EARTH
REF_FRAME      = TEME
TIME_SYSTEM    = UTC
MEAN_ELEMENT_THEORY = SGP/SGP4

EPOCH          = 2026-05-22T12:28:18.496992
MEAN_MOTION    = 15.49313075
ECCENTRICITY   = .00075371
INCLINATION    = 51.6330
RA_OF_ASC_NODE = 67.1668
ARG_OF_PERICENTER = 86.3178
MEAN_ANOMALY   = 273.8673

EPHEMERIS_TYPE = 0
CLASSIFICATION_TYPE = U
NORAD_CAT_ID   = 68837
ELEMENT_SET_NO = 999
REV_AT_EPOCH   = 56783
BSTAR          = .13944924E-3
MEAN_MOTION_DOT = .7327E-4
MEAN_MOTION_DDOT = 0

