DUPLEX                  
1 66906U 98067XS  26142.06999788  .00028651  00000+0  34674-3 0  9996
2 66906  51.6286  61.1585 0005373  92.1093 268.0516 15.60428220 26573
ISS OBJECT XY           
1 66912U 98067XY  26142.44456336  .00168940  00000+0  80098-3 0  9999
2 66912  51.6229  49.3244 0005118 130.0047 230.1405 15.81921114 26755
KNACKSAT-2              
1 67683U 98067XZ  26143.47615743  .00034577  00000+0  46334-3 0  9991
2 67683  51.6304  58.5531 0012027 109.7965 250.4324 15.57562157 16424
CORAL                   
1 67684U 98067YA  26143.47145157  .00109302  00000+0  94936-3 0  9999
2 67684  51.6263  54.7540 0013437 112.8198 247.4219 15.68132409 16475
GXIBA-1                 
1 67685U 98067YB  26142.02565926  .00041177  00000+0  52885-3 0  9992
2 67685  51.6286  65.3663 0013761 101.6902 258.5636 15.58582799 16201
UITMSAT-2               
1 67686U 98067YC  26142.14741837  .00054481  00000+0  64029-3 0  9998
2 67686  51.6278  63.9310 0010264  87.2209 272.9959 15.60842934 16234
LEOPARD                 
1 67687U 98067YD  26142.49168753  .00041828  00000+0  54696-3 0  9997
2 67687  51.6302  63.2373 0010034  86.7062 273.5078 15.58149895 16198
HMU-SAT2                
1 67688U 98067YE  26142.49991550  .00051159  00000+0  62535-3 0  9996
2 67688  51.6296  62.5396 0010088  87.4771 272.7377 15.59843796 16209
CREW DRAGON 12          
1 67796U 26031A   26143.48718465  .00006763  00000+0  12930-3 0  9995
2 67796  51.6326  62.3775 0007523  89.6569 270.5281 15.49328337567839
PROGRESS-MS 33          
1 68319U 26058A   26143.48718465  .00006763  00000+0  12930-3 0  9996
2 68319  51.6326  62.3775 0007523  89.6569 270.5281 15.49328337567910
CYGNUS NG-24            
1 68689U 26079A   26142.51965853  .00007327  00000+0  13945-3 0  9991
2 68689  51.6330  67.1668 0007537  86.3178 273.8673 15.49313075567794
PROGRESS-MS 34          
1 68837U 26093A   26142.51965853  .00007327  00000+0  13945-3 0  9992
2 68837  51.6330  67.1668 0007537  86.3178 273.8673 15.49313075567834
